[{"OBJECT_NAME":"YAOGAN-30 08A","OBJECT_ID":"2020-076A","EPOCH":"2026-03-09T23:16:56.591616","MEAN_MOTION":15.02157833,"ECCENTRICITY":0.00011165,"INCLINATION":34.995,"RA_OF_ASC_NODE":335.7414,"ARG_OF_PERICENTER":272.5686,"MEAN_ANOMALY":87.4894,"EPHEMERIS_TYPE":0,"CLASSIFICATION_TYPE":"U","NORAD_CAT_ID":46807,"ELEMENT_SET_NO":999,"REV_AT_EPOCH":29318,"BSTAR":0.00031078635,"MEAN_MOTION_DOT":4.146e-5,"MEAN_MOTION_DDOT":0},{"OBJECT_NAME":"PSLV DEB","OBJECT_ID":"2001-049CY","EPOCH":"2026-03-09T18:20:37.296384","MEAN_MOTION":15.08389698,"ECCENTRICITY":0.00190632,"INCLINATION":97.9861,"RA_OF_ASC_NODE":156.2845,"ARG_OF_PERICENTER":340.3269,"MEAN_ANOMALY":19.722,"EPHEMERIS_TYPE":0,"CLASSIFICATION_TYPE":"U","NORAD_CAT_ID":27152,"ELEMENT_SET_NO":999,"REV_AT_EPOCH":30598,"BSTAR":0.00053695108,"MEAN_MOTION_DOT":8.318e-5,"MEAN_MOTION_DDOT":0}]
